[{"OBJECT_NAME":"STARLINK-11736 [DTC]","OBJECT_ID":"2025-124A","EPOCH":"2026-03-09T06:15:32.737248","MEAN_MOTION":15.7085977,"ECCENTRICITY":0.00018051,"INCLINATION":43.0008,"RA_OF_ASC_NODE":32.0959,"ARG_OF_PERICENTER":294.3345,"MEAN_ANOMALY":65.7334,"EPHEMERIS_TYPE":0,"CLASSIFICATION_TYPE":"U","NORAD_CAT_ID":64317,"ELEMENT_SET_NO":999,"REV_AT_EPOCH":4276,"BSTAR":0.0010660136,"MEAN_MOTION_DOT":0.00138758,"MEAN_MOTION_DDOT":0},{"OBJECT_NAME":"GFO","OBJECT_ID":"1998-007A","EPOCH":"2026-03-09T11:35:22.629120","MEAN_MOTION":15.65801864,"ECCENTRICITY":0.00488061,"INCLINATION":108.0178,"RA_OF_ASC_NODE":266.8886,"ARG_OF_PERICENTER":194.2539,"MEAN_ANOMALY":165.7295,"EPHEMERIS_TYPE":0,"CLASSIFICATION_TYPE":"U","NORAD_CAT_ID":25157,"ELEMENT_SET_NO":999,"REV_AT_EPOCH":51081,"BSTAR":0.00066525992,"MEAN_MOTION_DOT":0.00072245,"MEAN_MOTION_DDOT":0}]
